[{"OBJECT_NAME":"STARLINK-5411","OBJECT_ID":"2022-177AX","EPOCH":"2025-08-23T17:00:45.044352","MEAN_MOTION":15.02535796,"ECCENTRICITY":0.00012384,"INCLINATION":43.0031,"RA_OF_ASC_NODE":116.1086,"ARG_OF_PERICENTER":267.3206,"MEAN_ANOMALY":92.7494,"EPHEMERIS_TYPE":0,"CLASSIFICATION_TYPE":"U","NORAD_CAT_ID":54865,"ELEMENT_SET_NO":999,"REV_AT_EPOCH":14732,"BSTAR":2.2026453e-5,"MEAN_MOTION_DOT":9.4e-7,"MEAN_MOTION_DDOT":0},{"OBJECT_NAME":"STARLINK-5398","OBJECT_ID":"2022-177AY","EPOCH":"2025-08-23T02:02:27.157920","MEAN_MOTION":15.02547181,"ECCENTRICITY":0.00013661,"INCLINATION":43.0026,"RA_OF_ASC_NODE":119.1705,"ARG_OF_PERICENTER":259.5738,"MEAN_ANOMALY":100.495,"EPHEMERIS_TYPE":0,"CLASSIFICATION_TYPE":"U","NORAD_CAT_ID":54866,"ELEMENT_SET_NO":999,"REV_AT_EPOCH":14723,"BSTAR":7.58634e-5,"MEAN_MOTION_DOT":8.22e-6,"MEAN_MOTION_DDOT":0},{"OBJECT_NAME":"STARLINK-5396","OBJECT_ID":"2022-177AZ","EPOCH":"2025-08-23T08:42:55.905120","MEAN_MOTION":15.0253331,"ECCENTRICITY":0.0001276,"INCLINATION":43.0032,"RA_OF_ASC_NODE":117.8173,"ARG_OF_PERICENTER":272.1734,"MEAN_ANOMALY":87.8962,"EPHEMERIS_TYPE":0,"CLASSIFICATION_TYPE":"U","NORAD_CAT_ID":54867,"ELEMENT_SET_NO":999,"REV_AT_EPOCH":14727,"BSTAR":1.4598111e-5,"MEAN_MOTION_DOT":-6.0e-8,"MEAN_MOTION_DDOT":0},{"OBJECT_NAME":"STARLINK-5379","OBJECT_ID":"2022-177BA","EPOCH":"2025-08-23T22:40:30.609408","MEAN_MOTION":15.02548619,"ECCENTRICITY":0.0001024,"INCLINATION":43.0048,"RA_OF_ASC_NODE":114.4394,"ARG_OF_PERICENTER":258.9273,"MEAN_ANOMALY":101.1454,"EPHEMERIS_TYPE":0,"CLASSIFICATION_TYPE":"U","NORAD_CAT_ID":54868,"ELEMENT_SET_NO":999,"REV_AT_EPOCH":14736,"BSTAR":-0.00012576757,"MEAN_MOTION_DOT":-1.903e-5,"MEAN_MOTION_DDOT":0},{"OBJECT_NAME":"STARLINK-5402","OBJECT_ID":"2022-177BB","EPOCH":"2025-08-23T18:07:42.665088","MEAN_MOTION":15.02536175,"ECCENTRICITY":9.404e-5,"INCLINATION":43.0034,"RA_OF_ASC_NODE":115.5999,"ARG_OF_PERICENTER":254.6646,"MEAN_ANOMALY":105.4092,"EPHEMERIS_TYPE":0,"CLASSIFICATION_TYPE":"U","NORAD_CAT_ID":54869,"ELEMENT_SET_NO":999,"REV_AT_EPOCH":14733,"BSTAR":2.066524e-5,"MEAN_MOTION_DOT":7.6e-7,"MEAN_MOTION_DDOT":0},{"OBJECT_NAME":"STARLINK-5401","OBJECT_ID":"2022-177BC","EPOCH":"2025-08-23T22:43:42.258432","MEAN_MOTION":15.02536819,"ECCENTRICITY":9.878e-5,"INCLINATION":43.0034,"RA_OF_ASC_NODE":114.4558,"ARG_OF_PERICENTER":263.3835,"MEAN_ANOMALY":96.6895,"EPHEMERIS_TYPE":0,"CLASSIFICATION_TYPE":"U","NORAD_CAT_ID":54870,"ELEMENT_SET_NO":999,"REV_AT_EPOCH":14736,"BSTAR":3.5865502e-5,"MEAN_MOTION_DOT":2.81e-6,"MEAN_MOTION_DDOT":0},{"OBJECT_NAME":"STARLINK-5397","OBJECT_ID":"2022-177BD","EPOCH":"2025-08-23T18:09:18.795456","MEAN_MOTION":15.0254062,"ECCENTRICITY":0.00012426,"INCLINATION":43.0036,"RA_OF_ASC_NODE":115.6065,"ARG_OF_PERICENTER":255.686,"MEAN_ANOMALY":104.3845,"EPHEMERIS_TYPE":0,"CLASSIFICATION_TYPE":"U","NORAD_CAT_ID":54871,"ELEMENT_SET_NO":999,"REV_AT_EPOCH":14733,"BSTAR":-6.6249849e-5,"MEAN_MOTION_DOT":-1.099e-5,"MEAN_MOTION_DDOT":0},{"OBJECT_NAME":"STARLINK-5390","OBJECT_ID":"2022-177BE","EPOCH":"2025-08-23T01:48:03.352320","MEAN_MOTION":15.02535037,"ECCENTRICITY":0.00012664,"INCLINATION":43.0041,"RA_OF_ASC_NODE":119.1196,"ARG_OF_PERICENTER":263.6593,"MEAN_ANOMALY":96.4105,"EPHEMERIS_TYPE":0,"CLASSIFICATION_TYPE":"U","NORAD_CAT_ID":54872,"ELEMENT_SET_NO":999,"REV_AT_EPOCH":14723,"BSTAR":5.1512856e-5,"MEAN_MOTION_DOT":4.92e-6,"MEAN_MOTION_DDOT":0},{"OBJECT_NAME":"STARLINK-5091","OBJECT_ID":"2022-177BF","EPOCH":"2025-08-23T22:35:42.811008","MEAN_MOTION":15.02537225,"ECCENTRICITY":0.00011928,"INCLINATION":43.0034,"RA_OF_ASC_NODE":114.4159,"ARG_OF_PERICENTER":271.6983,"MEAN_ANOMALY":88.3722,"EPHEMERIS_TYPE":0,"CLASSIFICATION_TYPE":"U","NORAD_CAT_ID":54873,"ELEMENT_SET_NO":999,"REV_AT_EPOCH":14736,"BSTAR":4.0667962e-5,"MEAN_MOTION_DOT":3.46e-6,"MEAN_MOTION_DDOT":0},{"OBJECT_NAME":"STARLINK-5277","OBJECT_ID":"2023-010A","EPOCH":"2025-08-23T22:40:55.565184","MEAN_MOTION":14.98334009,"ECCENTRICITY":0.00029803,"INCLINATION":69.9995,"RA_OF_ASC_NODE":183.1242,"ARG_OF_PERICENTER":270.8906,"MEAN_ANOMALY":89.1912,"EPHEMERIS_TYPE":0,"CLASSIFICATION_TYPE":"U","NORAD_CAT_ID":55269,"ELEMENT_SET_NO":999,"REV_AT_EPOCH":14344,"BSTAR":1.0966416e-5,"MEAN_MOTION_DOT":3.8e-7,"MEAN_MOTION_DDOT":0},{"OBJECT_NAME":"STARLINK-5306","OBJECT_ID":"2023-010C","EPOCH":"2025-08-23T22:46:56.326656","MEAN_MOTION":14.9833058,"ECCENTRICITY":0.00027201,"INCLINATION":69.9999,"RA_OF_ASC_NODE":183.1373,"ARG_OF_PERICENTER":270.168,"MEAN_ANOMALY":89.9167,"EPHEMERIS_TYPE":0,"CLASSIFICATION_TYPE":"U","NORAD_CAT_ID":55271,"ELEMENT_SET_NO":999,"REV_AT_EPOCH":14316,"BSTAR":4.1745168e-5,"MEAN_MOTION_DOT":4.05e-6,"MEAN_MOTION_DDOT":0},{"OBJECT_NAME":"STARLINK-5310","OBJECT_ID":"2023-010D","EPOCH":"2025-08-23T22:22:54.057504","MEAN_MOTION":14.9833907,"ECCENTRICITY":0.00027225,"INCLINATION":70.0001,"RA_OF_ASC_NODE":183.084,"ARG_OF_PERICENTER":268.7955,"MEAN_ANOMALY":91.2892,"EPHEMERIS_TYPE":0,"CLASSIFICATION_TYPE":"U","NORAD_CAT_ID":55272,"ELEMENT_SET_NO":999,"REV_AT_EPOCH":14316,"BSTAR":-1.4857356e-5,"MEAN_MOTION_DOT":-2.7e-6,"MEAN_MOTION_DDOT":0},{"OBJECT_NAME":"STARLINK-5291","OBJECT_ID":"2023-010E","EPOCH":"2025-08-23T21:46:49.636416","MEAN_MOTION":14.98332654,"ECCENTRICITY":0.00027001,"INCLINATION":70.0003,"RA_OF_ASC_NODE":182.9952,"ARG_OF_PERICENTER":264.5279,"MEAN_ANOMALY":95.5572,"EPHEMERIS_TYPE":0,"CLASSIFICATION_TYPE":"U","NORAD_CAT_ID":55273,"ELEMENT_SET_NO":999,"REV_AT_EPOCH":14316,"BSTAR":5.729446e-6,"MEAN_MOTION_DOT":-2.5e-7,"MEAN_MOTION_DDOT":0},{"OBJECT_NAME":"STARLINK-5236","OBJECT_ID":"2023-010F","EPOCH":"2025-08-23T22:28:35.022144","MEAN_MOTION":14.98329982,"ECCENTRICITY":0.00029631,"INCLINATION":70.0003,"RA_OF_ASC_NODE":163.2258,"ARG_OF_PERICENTER":263.5677,"MEAN_ANOMALY":96.5144,"EPHEMERIS_TYPE":0,"CLASSIFICATION_TYPE":"U","NORAD_CAT_ID":55274,"ELEMENT_SET_NO":999,"REV_AT_EPOCH":14365,"BSTAR":3.669605e-5,"MEAN_MOTION_DOT":3.45e-6,"MEAN_MOTION_DDOT":0},{"OBJECT_NAME":"STARLINK-5260","OBJECT_ID":"2023-010G","EPOCH":"2025-08-23T22:16:47.902080","MEAN_MOTION":14.98331274,"ECCENTRICITY":0.00029617,"INCLINATION":70.0006,"RA_OF_ASC_NODE":163.1986,"ARG_OF_PERICENTER":268.4868,"MEAN_ANOMALY":91.5952,"EPHEMERIS_TYPE":0,"CLASSIFICATION_TYPE":"U","NORAD_CAT_ID":55275,"ELEMENT_SET_NO":999,"REV_AT_EPOCH":14365,"BSTAR":4.1398876e-5,"MEAN_MOTION_DOT":4.01e-6,"MEAN_MOTION_DDOT":0},{"OBJECT_NAME":"STARLINK-5261","OBJECT_ID":"2023-010H","EPOCH":"2025-08-23T22:16:33.556224","MEAN_MOTION":14.98333848,"ECCENTRICITY":0.00031331,"INCLINATION":70.0007,"RA_OF_ASC_NODE":163.1969,"ARG_OF_PERICENTER":266.2163,"MEAN_ANOMALY":93.8638,"EPHEMERIS_TYPE":0,"CLASSIFICATION_TYPE":"U","NORAD_CAT_ID":55276,"ELEMENT_SET_NO":999,"REV_AT_EPOCH":14364,"BSTAR":3.272509e-6,"MEAN_MOTION_DOT":-5.4e-7,"MEAN_MOTION_DDOT":0}]
