STARLINK-5411           
1 54865U 22177AX  25235.70885468  .00000094  00000+0  22026-4 0  9998
2 54865  43.0031 116.1086 0001238 267.3206  92.7494 15.02535796147329
STARLINK-5398           
1 54866U 22177AY  25235.08503655  .00000822  00000+0  75863-4 0  9991
2 54866  43.0026 119.1705 0001366 259.5738 100.4950 15.02547181147235
STARLINK-5396           
1 54867U 22177AZ  25235.36314705 -.00000006  00000+0  14598-4 0  9992
2 54867  43.0032 117.8173 0001276 272.1734  87.8962 15.02533310147278
STARLINK-5379           
1 54868U 22177BA  25235.94479872 -.00001903  00000+0 -12577-3 0  9996
2 54868  43.0048 114.4394 0001024 258.9273 101.1454 15.02548619147369
STARLINK-5402           
1 54869U 22177BB  25235.75535492  .00000076  00000+0  20665-4 0  9993
2 54869  43.0034 115.5999 0000940 254.6646 105.4092 15.02536175147337
STARLINK-5401           
1 54870U 22177BC  25235.94701688  .00000281  00000+0  35866-4 0  9995
2 54870  43.0034 114.4558 0000987 263.3835  96.6895 15.02536819147366
STARLINK-5397           
1 54871U 22177BD  25235.75646754 -.00001099  00000+0 -66250-4 0  9998
2 54871  43.0036 115.6065 0001242 255.6860 104.3845 15.02540620147336
STARLINK-5390           
1 54872U 22177BE  25235.07503880  .00000492  00000+0  51513-4 0  9996
2 54872  43.0041 119.1196 0001266 263.6593  96.4105 15.02535037147230
STARLINK-5091           
1 54873U 22177BF  25235.94146772  .00000346  00000+0  40668-4 0  9993
2 54873  43.0034 114.4159 0001192 271.6983  88.3722 15.02537225147360
STARLINK-5277           
1 55269U 23010A   25235.94508756  .00000038  00000+0  10966-4 0  9990
2 55269  69.9995 183.1242 0002980 270.8906  89.1912 14.98334009143445
STARLINK-5306           
1 55271U 23010C   25235.94926304  .00000405  00000+0  41745-4 0  9993
2 55271  69.9999 183.1373 0002720 270.1680  89.9167 14.98330580143160
STARLINK-5310           
1 55272U 23010D   25235.93257011 -.00000270  00000+0 -14857-4 0  9991
2 55272  70.0001 183.0840 0002722 268.7955  91.2892 14.98339070143160
STARLINK-5291           
1 55273U 23010E   25235.90751894 -.00000025  00000+0  57294-5 0  9997
2 55273  70.0003 182.9952 0002700 264.5279  95.5572 14.98332654143167
STARLINK-5236           
1 55274U 23010F   25235.93651646  .00000345  00000+0  36696-4 0  9991
2 55274  70.0003 163.2258 0002963 263.5677  96.5144 14.98329982143651
STARLINK-5260           
1 55275U 23010G   25235.92833220  .00000401  00000+0  41399-4 0  9990
2 55275  70.0006 163.1986 0002961 268.4868  91.5952 14.98331274143655
STARLINK-5261           
1 55276U 23010H   25235.92816616 -.00000054  00000+0  32725-5 0  9990
2 55276  70.0007 163.1969 0003133 266.2163  93.8638 14.98333848143648
